ICEYE-X40               
1 60549U 24149CK  26068.75921699  .00003253  00000+0  28352-3 0  9999
2 60549  97.6865 146.8579 0005983  65.2061 294.9783 14.97556326 85195
STARLINK-34033          
1 64045U 25102Z   26068.56165852  .00003267  00000+0  28142-3 0  9996
2 64045  70.0010 114.7526 0003568 269.7941  90.2809 14.98332780 45861
